start=new Date('2021-11-04T00:00:00.000Z').valueOf();
sats=[{"REF_FRAME":"TEME","MEAN_MOTION_DOT":"-0.00006722","REV_AT_EPOCH":"3788","EPOCH":"2021-11-03T12:56:12.914304","ELEMENT_SET_NO":"999","SEMIMAJOR_AXIS":"6925.252","OBJECT_TYPE":"PAYLOAD","INCLINATION":"53.0291","PERIAPSIS":"545.713","MEAN_MOTION_DDOT":"0.0000000000000","LAUNCH_DATE":"2021-03-04","MEAN_ANOMALY":"293.2968","ECCENTRICITY":"0.00020270","APOAPSIS":"548.520","TLE_LINE1":"1 47778U 21017BJ  21307.53903836 -.00006722  00000-0 -43239-3 0  9997","RA_OF_ASC_NODE":"136.7828","GP_ID":"188833255","SITE":"AFETR","TLE_LINE2":"2 47778  53.0291 136.7828 0002027  66.8234 293.2968 15.06431616 37888","RCS_SIZE":"LARGE","EPHEMERIS_TYPE":"0","PERIOD":"95.590","TIME_SYSTEM":"UTC","NORAD_CAT_ID":"47778","BSTAR":"-0.00043239000000","ARG_OF_PERICENTER":"66.8234","COUNTRY_CODE":"US","CENTER_NAME":"EARTH","MEAN_ELEMENT_THEORY":"SGP4","FILE":"3199970","MEAN_MOTION":"15.06431616","OBJECT_NAME":"STARLINK-2211","DECAY_DATE":null,"CLASSIFICATION_TYPE":"U","OBJECT_ID":"2021-017BJ"},{"APOAPSIS":"548.480","TLE_LINE1":"1 47779U 21017BK  21307.55377543 -.00000137  00000-0  96937-5 0  9998","RA_OF_ASC_NODE":"136.5412","RCS_SIZE":"LARGE","TLE_LINE2":"2 47779  53.0543 136.5412 0001784  75.8519 284.2668 15.06389966 37888","GP_ID":"188833262","SITE":"AFETR","EPHEMERIS_TYPE":"0","PERIOD":"95.593","TIME_SYSTEM":"UTC","ARG_OF_PERICENTER":"75.8519","BSTAR":"0.00000969370000","NORAD_CAT_ID":"47779","COUNTRY_CODE":"US","CENTER_NAME":"EARTH","MEAN_ELEMENT_THEORY":"SGP4","FILE":"3199971","MEAN_MOTION":"15.06389966","OBJECT_NAME":"STARLINK-2212","DECAY_DATE":null,"CLASSIFICATION_TYPE":"U","OBJECT_ID":"2021-017BK","MEAN_MOTION_DOT":"-0.00000137","REF_FRAME":"TEME","REV_AT_EPOCH":"3788","EPOCH":"2021-11-03T13:17:26.197152","ELEMENT_SET_NO":"999","INCLINATION":"53.0543","OBJECT_TYPE":"PAYLOAD","SEMIMAJOR_AXIS":"6925.379","PERIAPSIS":"546.009","MEAN_MOTION_DDOT":"0.0000000000000","LAUNCH_DATE":"2021-03-04","MEAN_ANOMALY":"284.2668","ECCENTRICITY":"0.00017840"},{"MEAN_ANOMALY":"283.6173","LAUNCH_DATE":"2021-03-04","ECCENTRICITY":"0.00017390","MEAN_MOTION_DDOT":"0.0000000000000","PERIAPSIS":"546.036","ELEMENT_SET_NO":"999","EPOCH":"2021-11-03T19:43:32.317248","INCLINATION":"53.0547","SEMIMAJOR_AXIS":"6925.375","OBJECT_TYPE":"PAYLOAD","REF_FRAME":"TEME","MEAN_MOTION_DOT":"-0.00000865","REV_AT_EPOCH":"3860","MEAN_MOTION":"15.06391427","FILE":"3200165","CLASSIFICATION_TYPE":"U","OBJECT_ID":"2021-017BL","OBJECT_NAME":"STARLINK-2213","DECAY_DATE":null,"ARG_OF_PERICENTER":"76.5010","BSTAR":"-0.00003919300000","NORAD_CAT_ID":"47780","MEAN_ELEMENT_THEORY":"SGP4","COUNTRY_CODE":"US","CENTER_NAME":"EARTH","TIME_SYSTEM":"UTC","RA_OF_ASC_NODE":"135.3442","TLE_LINE1":"1 47780U 21017BL  21307.82190182 -.00000865  00000-0 -39193-4 0  9991","APOAPSIS":"548.444","PERIOD":"95.593","EPHEMERIS_TYPE":"0","RCS_SIZE":"LARGE","TLE_LINE2":"2 47780  53.0547 135.3442 0001739  76.5010 283.6173 15.06391427 38608","SITE":"AFETR","GP_ID":"188858418"},{"TIME_SYSTEM":"UTC","EPHEMERIS_TYPE":"0","PERIOD":"95.593","TLE_LINE2":"2 47781  53.0553 135.4581 0001694  83.7466 276.3715 15.06392620 38557","RCS_SIZE":"LARGE","GP_ID":"188859670","SITE":"AFETR","RA_OF_ASC_NODE":"135.4581","TLE_LINE1":"1 47781U 21017BM  21307.79704615  .00000213  00000-0  33231-4 0  9992","APOAPSIS":"548.409","CLASSIFICATION_TYPE":"U","OBJECT_ID":"2021-017BM","DECAY_DATE":null,"OBJECT_NAME":"STARLINK-2223","FILE":"3200165","MEAN_MOTION":"15.06392620","MEAN_ELEMENT_THEORY":"SGP4","COUNTRY_CODE":"US","CENTER_NAME":"EARTH","BSTAR":"0.00003323100000","ARG_OF_PERICENTER":"83.7466","NORAD_CAT_ID":"47781","INCLINATION":"53.0553","SEMIMAJOR_AXIS":"6925.371","OBJECT_TYPE":"PAYLOAD","ELEMENT_SET_NO":"999","EPOCH":"2021-11-03T19:07:44.787360","REV_AT_EPOCH":"3855","REF_FRAME":"TEME","MEAN_MOTION_DOT":"0.00000213","ECCENTRICITY":"0.00016940","MEAN_ANOMALY":"276.3715","LAUNCH_DATE":"2021-03-04","MEAN_MOTION_DDOT":"0.0000000000000","PERIAPSIS":"546.063"},{"INCLINATION":"53.0554","SEMIMAJOR_AXIS":"6925.392","OBJECT_TYPE":"PAYLOAD","EPOCH":"2021-11-03T08:25:30.828000","ELEMENT_SET_NO":"999","REV_AT_EPOCH":"3734","MEAN_MOTION_DOT":"-0.00001107","REF_FRAME":"TEME","ECCENTRICITY":"0.00017860","LAUNCH_DATE":"2021-03-11","MEAN_ANOMALY":"289.7237","PERIAPSIS":"546.020","MEAN_MOTION_DDOT":"0.0000000000000","TIME_SYSTEM":"UTC","TLE_LINE2":"2 47787  53.0554 177.4663 0001786  70.3945 289.7237 15.06385831 37346","RCS_SIZE":"LARGE","GP_ID":"188827166","SITE":"AFETR","PERIOD":"95.593","EPHEMERIS_TYPE":"0","APOAPSIS":"548.494","TLE_LINE1":"1 47787U 21018A   21307.35105125 -.00001107  00000-0 -55433-4 0  9995","RA_OF_ASC_NODE":"177.4663","OBJECT_NAME":"STARLINK-2257","DECAY_DATE":null,"CLASSIFICATION_TYPE":"U","OBJECT_ID":"2021-018A","FILE":"3199758","MEAN_MOTION":"15.06385831","COUNTRY_CODE":"US","CENTER_NAME":"EARTH","MEAN_ELEMENT_THEORY":"SGP4","ARG_OF_PERICENTER":"70.3945","BSTAR":"-0.00005543300000","NORAD_CAT_ID":"47787"},{"RA_OF_ASC_NODE":"150.1147","APOAPSIS":"555.992","TLE_LINE1":"1 47788U 21018B   21307.69723658 -.00000633  00000-0 -25686-4 0  9990","EPHEMERIS_TYPE":"0","PERIOD":"95.748","SITE":"AFETR","GP_ID":"188858669","RCS_SIZE":"MEDIUM","TLE_LINE2":"2 47788  53.0583 150.1147 0001796  72.1575 287.9609 15.03945442 37771","TIME_SYSTEM":"UTC","NORAD_CAT_ID":"47788","ARG_OF_PERICENTER":"72.1575","BSTAR":"-0.00002568600000","MEAN_ELEMENT_THEORY":"SGP4","COUNTRY_CODE":"US","CENTER_NAME":"EARTH","FILE":"3200165","MEAN_MOTION":"15.03945442","CLASSIFICATION_TYPE":"U","OBJECT_ID":"2021-018B","OBJECT_NAME":"STARLINK-2314","DECAY_DATE":null,"REF_FRAME":"TEME","MEAN_MOTION_DOT":"-0.00000633","REV_AT_EPOCH":"3777","ELEMENT_SET_NO":"999","EPOCH":"2021-11-03T16:44:01.240512","SEMIMAJOR_AXIS":"6932.882","OBJECT_TYPE":"PAYLOAD","INCLINATION":"53.0583","MEAN_MOTION_DDOT":"0.0000000000000","PERIAPSIS":"553.502","MEAN_ANOMALY":"287.9609","LAUNCH_DATE":"2021-03-11","ECCENTRICITY":"0.00017960"},{"REF_FRAME":"TEME","MEAN_MOTION_DOT":"0.00000573","REV_AT_EPOCH":"3770","EPOCH":"2021-11-03T19:26:18.611232","ELEMENT_SET_NO":"999","OBJECT_TYPE":"PAYLOAD","SEMIMAJOR_AXIS":"6925.358","INCLINATION":"53.0567","PERIAPSIS":"546.010","MEAN_MOTION_DDOT":"0.0000000000000","LAUNCH_DATE":"2021-03-11","MEAN_ANOMALY":"278.7123","ECCENTRICITY":"0.00017520","TLE_LINE1":"1 47789U 21018C   21307.80993763  .00000573  00000-0  57340-4 0  9993","APOAPSIS":"548.436","RA_OF_ASC_NODE":"155.3936","SITE":"AFETR","GP_ID":"188858919","TLE_LINE2":"2 47789  53.0567 155.3936 0001752  81.4065 278.7123 15.06396927 37709","RCS_SIZE":"LARGE","PERIOD":"95.592","EPHEMERIS_TYPE":"0","TIME_SYSTEM":"UTC","NORAD_CAT_ID":"47789","BSTAR":"0.00005734000000","ARG_OF_PERICENTER":"81.4065","CENTER_NAME":"EARTH","COUNTRY_CODE":"US","MEAN_ELEMENT_THEORY":"SGP4","MEAN_MOTION":"15.06396927","FILE":"3200165","OBJECT_NAME":"STARLINK-2315","DECAY_DATE":null,"OBJECT_ID":"2021-018C","CLASSIFICATION_TYPE":"U"},{"COUNTRY_CODE":"US","CENTER_NAME":"EARTH","MEAN_ELEMENT_THEORY":"SGP4","NORAD_CAT_ID":"47790","ARG_OF_PERICENTER":"60.4295","BSTAR":"0.00001570400000","CLASSIFICATION_TYPE":"U","OBJECT_ID":"2021-018D","OBJECT_NAME":"STARLINK-2319","DECAY_DATE":null,"FILE":"3200165","MEAN_MOTION":"15.06393951","PERIOD":"95.593","EPHEMERIS_TYPE":"0","GP_ID":"188859170","SITE":"AFETR","TLE_LINE2":"2 47790  53.0543 146.1069 0002105  60.4295 299.6904 15.06393951 37821","RCS_SIZE":"LARGE","RA_OF_ASC_NODE":"146.1069","TLE_LINE1":"1 47790U 21018D   21307.65236804 -.00000048  00000-0  15704-4 0  9990","APOAPSIS":"548.690","TIME_SYSTEM":"UTC","MEAN_MOTION_DDOT":"0.0000000000000","PERIAPSIS":"545.774","ECCENTRICITY":"0.00021050","MEAN_ANOMALY":"299.6904","LAUNCH_DATE":"2021-03-11","REV_AT_EPOCH":"3782","REF_FRAME":"TEME","MEAN_MOTION_DOT":"-0.00000048","OBJECT_TYPE":"PAYLOAD","SEMIMAJOR_AXIS":"6925.367","INCLINATION":"53.0543","ELEMENT_SET_NO":"999","EPOCH":"2021-11-03T15:39:24.598656"},{"TIME_SYSTEM":"UTC","RA_OF_ASC_NODE":"175.7199","APOAPSIS":"548.141","TLE_LINE1":"1 47791U 21018E   21307.73805647  .00001960  00000-0  15048-3 0  9990","PERIOD":"95.592","EPHEMERIS_TYPE":"0","GP_ID":"188859421","SITE":"AFETR","RCS_SIZE":"LARGE","TLE_LINE2":"2 47791  53.0565 175.7199 0001326  80.7746 279.3393 15.06396981 37416","MEAN_MOTION":"15.06396981","FILE":"3200165","CLASSIFICATION_TYPE":"U","OBJECT_ID":"2021-018E","OBJECT_NAME":"STARLINK-2322","DECAY_DATE":null,"NORAD_CAT_ID":"47791","BSTAR":"0.00015048000000","ARG_OF_PERICENTER":"80.7746","COUNTRY_CODE":"US","CENTER_NAME":"EARTH","MEAN_ELEMENT_THEORY":"SGP4","ELEMENT_SET_NO":"999","EPOCH":"2021-11-03T17:42:48.079008","OBJECT_TYPE":"PAYLOAD","SEMIMAJOR_AXIS":"6925.358","INCLINATION":"53.0565","MEAN_MOTION_DOT":"0.00001960","REF_FRAME":"TEME","REV_AT_EPOCH":"3741","MEAN_ANOMALY":"279.3393","LAUNCH_DATE":"2021-03-11","ECCENTRICITY":"0.00013260","MEAN_MOTION_DDOT":"0.0000000000000","PERIAPSIS":"546.305"},{"PERIAPSIS":"546.080","MEAN_MOTION_DDOT":"0.0000000000000","ECCENTRICITY":"0.00016810","LAUNCH_DATE":"2021-03-11","MEAN_ANOMALY":"279.5060","REV_AT_EPOCH":"3770","REF_FRAME":"TEME","MEAN_MOTION_DOT":"-0.00001453","SEMIMAJOR_AXIS":"6925.380","OBJECT_TYPE":"PAYLOAD","INCLINATION":"53.0556","EPOCH":"2021-11-03T19:36:56.291616","ELEMENT_SET_NO":"999","COUNTRY_CODE":"US","CENTER_NAME":"EARTH","MEAN_ELEMENT_THEORY":"SGP4","NORAD_CAT_ID":"47792","ARG_OF_PERICENTER":"80.6119","BSTAR":"-0.00007867300000","DECAY_DATE":null,"OBJECT_NAME":"STARLINK-2334","OBJECT_ID":"2021-018F","CLASSIFICATION_TYPE":"U","FILE":"3200165","MEAN_MOTION":"15.06389902","SITE":"AFETR","GP_ID":"188858169","TLE_LINE2":"2 47792  53.0556 155.3660 0001681  80.6119 279.5060 15.06389902 37701","RCS_SIZE":"LARGE","EPHEMERIS_TYPE":"0","PERIOD":"95.593","APOAPSIS":"548.409","TLE_LINE1":"1 47792U 21018F   21307.81731819 -.00001453  00000-0 -78673-4 0  9992","RA_OF_ASC_NODE":"155.3660","TIME_SYSTEM":"UTC"}];
